NOAA 19 [+]             
1 33591U 09005A   22330.55025011  .00000171  00000+0  11739-3 0  9996
2 33591  99.1298   7.9567 0014844  93.0723 267.2147 14.12642882711073
SUOMI NPP [+]           
1 37849U 11061A   22330.61884454  .00000075  00000+0  56388-4 0  9995
2 37849  98.7485 267.0131 0001073  90.3428  83.1353 14.19563480574203
NOAA 20 [+]             
1 43013U 17073A   22330.54897644  .00000057  00000+0  47859-4 0  9994
2 43013  98.7323 266.6562 0000829  54.8558 305.2696 14.19561676260221
CELESTIS-02             
1 25160U 98007D   22330.54103125 -.00000015  00000+0  51134-4 0  9993
2 25160 107.9831 233.1639 0062844 194.5410 338.5694 14.21665946285894
CELESTIS-03             
1 26034U 99070C   22330.54997061  .00020984  00000+0  83455-3 0  9991
2 26034  98.3033 353.2893 0007184 303.7197  56.3353 15.25300944245724
O3B FM5                 
1 39188U 13031A   22330.18867291 -.00000012  00000+0  00000+0 0  9991
2 39188   0.0659  10.9977 0002795 239.1451 109.8330  5.00115308172043
O3B FM4                 
1 39189U 13031B   22330.24462834 -.00000013  00000+0  00000+0 0  9994
2 39189   0.0432 353.3529 0002737 256.2678 110.3557  5.00115824172071
O3B FM2                 
1 39190U 13031C   22330.13621918 -.00000012  00000+0  00000+0 0  9993
2 39190   0.0407 347.2795 0002738 261.0718 111.6255  5.00115060172118
O3B PFM                 
1 39191U 13031D   22330.16246639 -.00000012  00000+0  00000+0 0  9990
2 39191   0.0574   8.1770 0002735 237.3736 114.4268  5.00115701171670
O3B FM3                 
1 40079U 14038A   22330.41717137 -.00000013  00000+0  00000+0 0  9990
2 40079   0.0494 359.3327 0004557 220.8335 139.8058  5.00115295148066
O3B FM7                 
1 40080U 14038B   22329.96345705 -.00000012  00000+0  00000+0 0  9997
2 40080   0.0494 354.2150 0002606 292.4130  73.3495  5.00115474152888
O3B FM6                 
1 40081U 14038C   22329.98985013 -.00000012  00000+0  00000+0 0  9992
2 40081   0.0484 359.4040 0002796 246.3361 114.2368  5.00115260152828
O3B FM8                 
1 40082U 14038D   22330.04372964 -.00000012  00000+0  00000+0 0  9997
2 40082   0.0453 358.0629 0002670 244.9656 116.9503  5.00115634152954
O3B FM10                
1 40348U 14083A   22330.26974952 -.00000013  00000+0  00000+0 0  9992
2 40348   0.0523   8.7750 0002713 237.1218 114.0806  5.00115098144902
O3B FM11                
1 40349U 14083B   22330.08328220 -.00000012  00000+0  00000+0 0  9993
2 40349   0.0558   5.3455 0002906 254.4460 100.1817  5.00115334144924
O3B FM12                
1 40350U 14083C   22330.31039751 -.00000013  00000+0  00000+0 0  9990
2 40350   0.0548   5.1750 0002895 242.2625 112.5376  5.00115228144947
O3B FM9                 
1 40351U 14083D   22330.53705924 -.00000013  00000+0  00000+0 0  9997
2 40351   0.0568   4.7858 0002713 242.6729 112.5182  5.00116054145104
DIAMOND RED             
1 42783U 17036U   22330.05682013  .00010376  00000+0  35264-3 0  9995
2 42783  97.1801   5.4186 0011493 110.4962 249.7514 15.30581565301631
DIAMOND GREEN           
1 42785U 17036W   22330.51344936  .00010821  00000+0  36648-3 0  9999
2 42785  97.1803   5.9291 0011306 110.8316 249.4137 15.30686450301779
DIAMOND BLUE            
1 42786U 17036X   22330.57846649  .00010344  00000+0  35079-3 0  9991
2 42786  97.1804   5.9831 0011382 110.3637 249.8828 15.30654574301780
LEO VANTAGE 1           
1 43113U 18004C   22330.53150069  .00001613  00000+0  13324-3 0  9990
2 43113  99.2437  67.9126 0399485  64.2636 299.9227 14.54647965247794
O3B FM15                
1 43231U 18024A   22330.40311259 -.00000013  00000+0  00000+0 0  9996
2 43231   0.0503  11.9904 0003053 234.9220 113.0611  5.00116098 86052
O3B FM16                
1 43232U 18024B   22330.45652507 -.00000013  00000+0  00000+0 0  9996
2 43232   0.0490  16.5667 0003047 230.9395 112.4672  5.00115882 85966
O3B FM14                
1 43233U 18024C   22330.49624347 -.00000013  00000+0  00000+0 0  9992
2 43233   0.0480  17.8896 0002953 232.9056 109.1784  5.00115292 85978
O3B FM13                
1 43234U 18024D   22329.95010272 -.00000012  00000+0  00000+0 0  9997
2 43234   0.0600  10.4162 0003878 237.4639 112.0848  5.00115236 86076
O3B FM20                
1 44112U 19020A   22330.32304482 -.00000013  00000+0  00000+0 0  9993
2 44112   0.0517   8.4893 0003334 243.1762 108.3040  5.00115401 66596
O3B FM19                
1 44113U 19020B   22329.95010996 -.00000012  00000+0  00000+0 0  9994
2 44113   0.0730  16.9958 0002325 258.8865  84.0973  5.00115271 66440
O3B FM17                
1 44114U 19020C   22330.43033362 -.00000013  00000+0  00000+0 0  9993
2 44114   0.0321  10.8096 0003176 235.8071 113.3555  5.00115585 66554
O3B FM18                
1 44115U 19020D   22329.57726698 -.00000011  00000+0  00000+0 0  9996
2 44115   0.0521   8.5022 0002959 235.8803 115.5933  5.00115743 66629
SALSAT                  
1 46495U 20068K   22330.40600258  .00002430  00000+0  17359-3 0  9995
2 46495  97.7465 271.9577 0017831  88.3376 271.9893 15.05348056118546
ISS (ZARYA)             
1 25544U 98067A   22330.74064861  .00011490  00000+0  20714-3 0  9997
2 25544  51.6445 251.3113 0007148 117.3711 344.2853 15.50241498370394
AEROCUBE 12A            
1 43556U 18046C   22329.69473533  .00034134  00000+0  66464-3 0  9993
2 43556  51.6337 113.9784 0007805 259.0571 100.9538 15.47204785244203
AEROCUBE 12B            
1 43557U 18046D   22330.43242329  .00023120  00000+0  51779-3 0  9991
2 43557  51.6353 118.0589 0007623 255.6772 104.3368 15.43311751244166
LEMUR-2-VU              
1 43558U 18046E   22330.57014223  .00092608  00000+0  93564-3 0  9992
2 43558  51.6332  79.1109 0008975 293.3966  66.6085 15.64512652244740
LEMUR-2-ALEXANDER       
1 43559U 18046F   22330.37404013  .00209220  00000+0  14756-2 0  9996
2 43559  51.6369  74.8467 0007763 330.4776  29.5784 15.72852295244569
LEMUR-2-YUASA           
1 43560U 18046G   22330.57599838  .00149388  00000+0  12002-2 0  9990
2 43560  51.6374  77.6831 0008215 328.8280  31.2229 15.69947107244766
LEMUR-2-TOMHENDERSON    
1 43561U 18046H   22330.13048653  .00095051  00000+0  11446-2 0  9995
2 43561  51.6385  87.4192 0008835 284.3507  75.6505 15.59986419244154
ICS-EF (ISS DEB)        
1 45265U 98067RJ  22330.37641142  .00057478  00000+0  38784-3 0  9993
2 45265  51.6318 209.2400 0005846 121.3024 238.8548 15.74501402157034
ISS DEB                 
1 47853U 98067RZ  22330.06724990  .00011621  00000+0  16266-3 0  9998
2 47853  51.6406 243.3785 0001388 187.7746 172.3225 15.57289865 97063
MMSATS-1                
1 47976U 98067SJ  22330.47299124  .00040902  00000+0  33935-3 0  9991
2 47976  51.6380 226.1185 0003261 143.8402  26.7347 15.69771504 95601
CSS (TIANHE)            
1 48274U 21035A   22330.43458563  .00018083  00000+0  22977-3 0  9993
2 48274  41.4779 310.8252 0005194 312.3585 182.9016 15.58956553 90138
ISS DEB                 
1 48833U 98067SK  22329.95279768  .00787300  34812-3  83655-3 0  9993
2 48833  51.6180 209.9294 0006940 197.9041 162.1729 16.09566218 84637
ISS (NAUKA)             
1 49044U 21066A   22329.52707505  .00010525  00000+0  19066-3 0  9992
2 49044  51.6442 257.3254 0007117 112.6167  51.8222 15.50208539370203
FREGAT DEB              
1 49271U 11037PF  22330.52417800  .00005760  00000+0  15137-1 0  9997
2 49271  51.6604 148.9774 1031394  24.6121 340.0538 11.98962296 66541
LIGHT-1                 
1 51509U 98067TG  22330.43502897  .00167905  00000+0  81827-3 0  9994
2 51509  51.6373 227.6983 0009310 112.9807 247.2178 15.81289509 46295
KITSUNE                 
1 52148U 98067TK  22330.48948036  .00048636  00000+0  45560-3 0  9991
2 52148  51.6396 239.7486 0006915 134.8000  34.9800 15.66696324 38528
PROGRESS-MS 20          
1 52795U 22059A   22329.52707505  .00010525  00000+0  19066-3 0  9992
2 52795  51.6442 257.3254 0007117 112.6167  51.8222 15.50208539370200
SHENZHOU 14             
1 52797U 22060A   22329.47481334  .00017136  00000+0  21828-3 0  9993
2 52797  41.4777 316.6480 0005636 309.8168 192.0015 15.58918074 89985
ISS DEB                 
1 52952U 98067TP  22330.48101332  .00353732  00000+0  14737-2 0  9991
2 52952  51.6309 240.7646 0011052 150.9172 209.2449 15.84110783 22891
CSS (WENTIAN)           
1 53239U 22085A   22329.47481334  .00017136  00000+0  21828-3 0  9992
2 53239  41.4777 316.6480 0005636 309.8168 192.0015 15.58918074 89987
1998-067TQ              
1 53305U 98067TQ  22330.19994037  .00095105  00000+0  95621-3 0  9993
2 53305  51.6375 248.6732 0008414 127.1246 233.0519 15.64630089 19866
YUZGU 8                 
1 53306U 98067TR  22330.24953544  .00124703  00000+0  11071-2 0  9991
2 53306  51.6364 247.5010 0008755 129.6217 230.5553 15.67601724 19884
1998-067TS              
1 53307U 98067TS  22330.18791057  .00124784  00000+0  11150-2 0  9991
2 53307  51.6354 247.8306 0008812 128.0613 232.1180 15.67441798 19902
YUZGU 9 (RS3S)          
1 53308U 98067TT  22330.38684360  .00113861  00000+0  10319-2 0  9992
2 53308  51.6362 246.9146 0008637 129.1159 231.0606 15.67138008 19960
YUZGU 7 (RS1S)          
1 53309U 98067TU  22330.24119053  .00122907  00000+0  10873-2 0  9996
2 53309  51.6358 247.4354 0009076 132.2277 227.9491 15.67691941 19895
YUZGU 11 (RS5S)         
1 53310U 98067TV  22330.19432751  .00117398  00000+0  10654-2 0  9990
2 53310  51.6359 247.8777 0008787 130.7897 229.3863 15.67088453 19910
YUZGU 12 (RS6S)         
1 53311U 98067TW  22330.47717736  .00116666  00000+0  10061-2 0  9990
2 53311  51.6351 246.0109 0008682 128.6550 231.5225 15.68345602 19986
TSIOLKOVSKY-RYAZAN 1 (*)
1 53312U 98067TX  22330.49742701  .00108938  00000+0  97715-3 0  9998
2 53312  51.6362 246.1539 0009036 133.1796 226.9957 15.67408181 19929
TSIOLKOVSKY-RYAZAN 2 (*)
1 53313U 98067TY  22330.49377092  .00106879  00000+0  95112-3 0  9997
2 53313  51.6366 246.1303 0008640 134.2197 225.9510 15.67615878 19972
